NORAD_CAT_ID,OBJECT_NAME,OBJECT_TYPE,EPOCH,MEAN_MOTION,ECCENTRICITY,INCLINATION,RA_OF_ASC_NODE,ARG_OF_PERICENTER,MEAN_ANOMALY,BSTAR,MEAN_MOTION_DOT,MEAN_MOTION_DDOT,TLE_LINE0,TLE_LINE1,TLE_LINE2,SEMIMAJOR_AXIS,PERIOD,APOGEE,PERIGEE,DECAYED
52495.0,STARLINK-3905,PAYLOAD,2023-04-30 03:38:52,15.08852018,0.0001214,53.2175,58.2274,101.829,258.2838,-4.5859e-05,-1.018e-05,0.0,0 STARLINK-3905,1 52495U 22049AW  23120.15199621 -.00001018  00000-0 -45859-4 0  9991,2 52495  53.2175  58.2274 0001214 101.8290 258.2838 15.08852018 54864,6917.844,95.437,540.548,538.869,0.0
52495.0,STARLINK-3905,PAYLOAD,2023-05-01 05:05:03,15.08839736,0.0001235,53.2177,53.4703,102.4206,257.6924,1.8354e-05,4e-08,0.0,0 STARLINK-3905,1 52495U 22049AW  23121.21184171  .00000004  00000-0  18354-4 0  9995,2 52495  53.2177  53.4703 0001235 102.4206 257.6924 15.08839736 55027,6917.881,95.438,540.601,538.892,0.0
52495.0,STARLINK-3905,PAYLOAD,2023-05-02 04:55:49,15.08850471,0.0001269,53.2183,49.0092,103.4643,256.6491,0.00013527,1.866e-05,0.0,0 STARLINK-3905,1 52495U 22049AW  23122.20543133  .00001866  00000-0  13527-3 0  9995,2 52495  53.2183  49.0092 0001269 103.4643 256.6491 15.08850471 55172,6917.848,95.437,540.591,538.836,0.0
52495.0,STARLINK-3905,PAYLOAD,2023-05-02 19:14:18,15.08824252,0.0001061,53.2182,46.3305,95.8776,264.2337,0.00027948,4.161e-05,0.0,0 STARLINK-3905,1 52495U 22049AW  23122.80159951  .00004161  00000-0  27948-3 0  9995,2 52495  53.2182  46.3305 0001061  95.8776 264.2337 15.08824252 55261,6917.929,95.439,540.528,539.06,0.0
52495.0,STARLINK-3905,PAYLOAD,2023-05-03 04:46:36,15.08845437,0.0001219,53.2183,44.5493,98.2696,261.8434,9.7836e-05,1.27e-05,0.0,0 STARLINK-3905,1 52495U 22049AW  23123.19903476  .00001270  00000-0  97836-4 0  9999,2 52495  53.2183  44.5493 0001219  98.2696 261.8434 15.08845437 55329,6917.864,95.437,540.572,538.885,0.0
52495.0,STARLINK-3905,PAYLOAD,2023-05-03 22:15:52,15.08837138,0.0001271,53.2178,41.2778,100.0189,260.0946,-9.8665e-05,-1.858e-05,0.0,0 STARLINK-3905,1 52495U 22049AW  23123.92768672 -.00001858  00000-0 -98665-4 0  9992,2 52495  53.2178  41.2778 0001271 100.0189 260.0946 15.08837138 55272,6917.889,95.438,540.633,538.875,0.0
52495.0,STARLINK-3905,PAYLOAD,2023-05-04 04:37:24,15.08841004,0.0001145,53.2179,40.0891,85.2689,274.8434,-4.5901e-05,-1.018e-05,0.0,0 STARLINK-3905,1 52495U 22049AW  23124.19264316 -.00001018  00000-0 -45901-4 0  9991,2 52495  53.2179  40.0891 0001145  85.2689 274.8434 15.08841004 55479,6917.877,95.437,540.534,538.95,0.0
52495.0,STARLINK-3905,PAYLOAD,2023-05-04 10:58:56,15.08841728,0.0001075,53.2178,38.8993,87.924,272.1876,-6.1923e-05,-1.273e-05,0.0,0 STARLINK-3905,1 52495U 22049AW  23124.45760247 -.00001273  00000-0 -61923-4 0  9999,2 52495  53.2178  38.8993 0001075  87.9240 272.1876 15.08841728 55351,6917.875,95.437,540.484,538.996,0.0
52495.0,STARLINK-3905,PAYLOAD,2023-05-04 18:55:52,15.0883711,0.0001071,53.2176,37.413,96.1872,263.9242,1.3809e-05,-6.8e-07,0.0,0 STARLINK-3905,1 52495U 22049AW  23124.78880477 -.00000068  00000-0  13809-4 0  9993,2 52495  53.2176  37.4130 0001071  96.1872 263.9242 15.08837110 55407,6917.889,95.438,540.495,539.013,0.0
52495.0,STARLINK-3905,PAYLOAD,2023-05-05 02:52:47,15.08846627,0.0001083,53.219,35.9283,99.973,260.1385,0.00011292,1.51e-05,0.0,0 STARLINK-3905,1 52495U 22049AW  23125.11999632  .00001510  00000-0  11292-3 0  9990,2 52495  53.2190  35.9283 0001083  99.9730 260.1385 15.08846627 55615,6917.86,95.437,540.474,538.976,0.0
52495.0,STARLINK-3905,PAYLOAD,2023-05-06 01:08:12,15.08835055,0.0001027,53.2184,31.7638,95.6037,264.5072,1.8295e-05,3e-08,0.0,0 STARLINK-3905,1 52495U 22049AW  23126.04736882  .00000003  00000-0  18295-4 0  9996,2 52495  53.2184  31.7638 0001027  95.6037 264.5072 15.08835055 55756,6917.896,95.438,540.471,539.05,0.0
52495.0,STARLINK-3905,PAYLOAD,2023-05-06 04:18:58,15.08838936,0.0001096,53.2185,31.1679,82.3332,277.7784,6.4755e-05,7.43e-06,0.0,0 STARLINK-3905,1 52495U 22049AW  23126.17984657  .00000743  00000-0  64755-4 0  9998,2 52495  53.2185  31.1679 0001096  82.3332 277.7784 15.08838936 55615,6917.884,95.438,540.507,538.99,0.0
52495.0,STARLINK-3905,PAYLOAD,2023-05-07 02:34:21,15.08861723,9.51e-05,53.2182,27.0051,96.9869,263.1231,0.00016965,2.415e-05,0.0,0 STARLINK-3905,1 52495U 22049AW  23127.10718813  .00002415  00000-0  16965-3 0  9998,2 52495  53.2182  27.0051 0000951  96.9869 263.1231 15.08861723 55914,6917.814,95.436,540.337,539.021,0.0
52495.0,STARLINK-3905,PAYLOAD,2023-05-07 21:39:00,15.08834245,0.0001104,53.2184,23.436,95.0967,265.0151,4.3078e-05,3.98e-06,0.0,0 STARLINK-3905,1 52495U 22049AW  23127.90209312  .00000398  00000-0  43078-4 0  9999,2 52495  53.2184  23.4360 0001104  95.0967 265.0151 15.08834245 55875,6917.898,95.438,540.527,538.999,0.0
52495.0,STARLINK-3905,PAYLOAD,2023-05-07 23:14:23,15.08831249,0.000104,53.2177,23.1396,92.3844,267.7267,-4.7052e-05,-1.036e-05,0.0,0 STARLINK-3905,1 52495U 22049AW  23127.96833120 -.00001036  00000-0 -47052-4 0  9993,2 52495  53.2177  23.1396 0001040  92.3844 267.7267 15.08831249 56044,6917.907,95.438,540.492,539.053,0.0
52495.0,STARLINK-3905,PAYLOAD,2023-05-08 21:29:47,15.08850137,0.0001189,53.2182,18.9785,71.1628,288.9493,0.00012996,1.782e-05,0.0,0 STARLINK-3905,1 52495U 22049AW  23128.89568578  .00001782  00000-0  12996-3 0  9992,2 52495  53.2182  18.9785 0001189  71.1628 288.9493 15.08850137 56024,6917.849,95.437,540.537,538.892,0.0
52495.0,STARLINK-3905,PAYLOAD,2023-05-08 23:05:10,15.08855263,0.00011,53.2171,18.6817,77.1937,282.9178,0.00020745,3.017e-05,0.0,0 STARLINK-3905,1 52495U 22049AW  23128.96192328  .00003017  00000-0  20745-3 0  9990,2 52495  53.2171  18.6817 0001100  77.1937 282.9178 15.08855263 56037,6917.834,95.437,540.46,538.938,0.0
52495.0,STARLINK-3905,PAYLOAD,2023-05-10 00:31:20,15.08851697,0.0001224,53.2177,13.9219,90.8498,269.2635,0.00032908,4.955e-05,0.0,0 STARLINK-3905,1 52495U 22049AW  23130.02176568  .00004955  00000-0  32908-3 0  9994,2 52495  53.2177  13.9219 0001224  90.8498 269.2635 15.08851697 56198,6917.845,95.437,540.556,538.863,0.0
52495.0,STARLINK-3905,PAYLOAD,2023-05-10 19:35:58,15.08842567,0.0001245,53.2178,10.354,92.3425,267.7709,9.3241e-06,-1.39e-06,0.0,0 STARLINK-3905,1 52495U 22049AW  23130.81664659 -.00000139  00000-0  93241-5 0  9994,2 52495  53.2178  10.3540 0001245  92.3425 267.7709 15.08842567 56312,6917.873,95.437,540.599,538.876,0.0
52495.0,STARLINK-3905,PAYLOAD,2023-05-10 22:46:44,15.08851098,0.0001132,53.2177,9.7606,86.4348,273.6773,0.00014006,1.943e-05,0.0,0 STARLINK-3905,1 52495U 22049AW  23130.94912294  .00001943  00000-0  14006-3 0  9992,2 52495  53.2177   9.7606 0001132  86.4348 273.6773 15.08851098 56494,6917.846,95.437,540.495,538.928,0.0
52495.0,STARLINK-3905,PAYLOAD,2023-05-11 22:37:32,15.08830966,8.93e-05,53.2178,5.3026,91.7752,268.3343,-0.00010571,-1.969e-05,0.0,0 STARLINK-3905,1 52495U 22049AW  23131.94273336 -.00001969  00000-0 -10571-3 0  9993,2 52495  53.2178   5.3026 0000893  91.7752 268.3343 15.08830966 56646,6917.908,95.438,540.391,539.155,0.0
52495.0,STARLINK-3905,PAYLOAD,2023-05-12 17:42:09,15.08843859,8.16e-05,53.217,1.731,95.7417,264.3668,0.00010936,1.453e-05,0.0,0 STARLINK-3905,1 52495U 22049AW  23132.73761007  .00001453  00000-0  10936-3 0  9999,2 52495  53.2170   1.7310 0000816  95.7417 264.3668 15.08843859 56608,6917.869,95.437,540.298,539.169,0.0
52495.0,STARLINK-3905,PAYLOAD,2023-05-12 22:28:18,15.08854518,7.89e-05,53.2166,0.8392,85.3956,274.7126,0.00025169,3.722e-05,0.0,0 STARLINK-3905,1 52495U 22049AW  23132.93632479  .00003722  00000-0  25169-3 0  9996,2 52495  53.2166   0.8392 0000789  85.3956 274.7126 15.08854518 56793,6917.836,95.437,540.247,539.155,0.0
52495.0,STARLINK-3905,PAYLOAD,2023-05-13 00:03:42,15.08848824,8.62e-05,53.2167,0.5419,84.9682,275.1409,0.00077469,0.00012066,0.0,0 STARLINK-3905,1 52495U 22049AW  23133.00257089  .00012066  00000-0  77469-3 0  9996,2 52495  53.2167   0.5419 0000862  84.9682 275.1409 15.08848824 56640,6917.853,95.437,540.315,539.122,0.0
52495.0,STARLINK-3905,PAYLOAD,2023-05-13 20:43:43,15.08839067,0.0001032,53.2168,356.677,65.6477,294.4623,9.5187e-05,1.227e-05,0.0,0 STARLINK-3905,1 52495U 22049AW  23133.86369395  .00001227  00000-0  95187-4 0  9999,2 52495  53.2168 356.6770 0001032  65.6477 294.4623 15.08839067 56779,6917.883,95.438,540.462,539.034,0.0
52495.0,STARLINK-3905,PAYLOAD,2023-05-14 01:29:52,15.08849394,9.29e-05,53.2166,355.7839,78.765,281.3446,0.00028133,4.194e-05,0.0,0 STARLINK-3905,1 52495U 22049AW  23134.06240975  .00004194  00000-0  28133-3 0  9996,2 52495  53.2166 355.7839 0000929  78.7650 281.3446 15.08849394 56968,6917.852,95.437,540.359,539.074,0.0
52495.0,STARLINK-3905,PAYLOAD,2023-05-14 20:34:30,15.08841209,0.0001173,53.2165,352.2161,82.079,278.0336,9.0662e-05,1.155e-05,0.0,0 STARLINK-3905,1 52495U 22049AW  23134.85729273  .00001155  00000-0  90662-4 0  9997,2 52495  53.2165 352.2161 0001173  82.0790 278.0336 15.08841209 56926,6917.877,95.437,540.553,538.93,0.0
52495.0,STARLINK-3905,PAYLOAD,2023-05-15 01:20:39,15.08851619,0.0001003,53.2167,351.3233,84.3291,275.7816,0.00035205,5.321e-05,0.0,0 STARLINK-3905,1 52495U 22049AW  23135.05600903  .00005321  00000-0  35205-3 0  9998,2 52495  53.2167 351.3233 0001003  84.3291 275.7816 15.08851619 57116,6917.845,95.437,540.404,539.016,0.0
52495.0,STARLINK-3905,PAYLOAD,2023-05-15 02:56:02,15.08851885,0.0001011,53.2166,351.0262,82.847,277.2637,0.0003803,5.772e-05,0.0,0 STARLINK-3905,1 52495U 22049AW  23135.12224894  .00005772  00000-0  38030-3 0  9996,2 52495  53.2166 351.0262 0001011  82.8470 277.2637 15.08851885 56960,6917.844,95.437,540.408,539.01,0.0
52495.0,STARLINK-3905,PAYLOAD,2023-05-15 20:25:17,15.08832035,0.0001153,53.2164,347.7553,72.8782,287.2336,1.1178e-05,-1.1e-06,0.0,0 STARLINK-3905,1 52495U 22049AW  23135.85089798 -.00000110  00000-0  11178-4 0  9995,2 52495  53.2164 347.7553 0001153  72.8782 287.2336 15.08832035 57239,6917.905,95.438,540.567,538.972,0.0
